{"type": "FeatureCollection", "name": "cauce_ppal", "crs": {"type": "name", "properties": {"name": "urn:ogc:def:crs:OGC:1.3:CRS84"}}, "features": [{"type": "Feature", "properties": {"FID": 1, "BASIN": 1.0, "UP_ELEV": 3134.86, "DN_ELEV": 1479.375, "LENGTH": 15666.458864299466, "AVG_SLOPE": 10.567}, "geometry": {"type": "LineString", "coordinates": [[-75.64885138603964, 6.331144162661521], [-75.64939384246819, 6.331143484570089], [-75.65101917249854, 6.329513235036947], [-75.65183285421489, 6.329512214552498], [-75.65210374109327, 6.329240505513408], [-75.65264619518359, 6.329239824228648], [-75.65291708146611, 6.3289681148207935], [-75.65291674074071, 6.328696746264872], [-75.65345851220343, 6.3281533271280415], [-75.65345817123975, 6.327881958593059], [-75.65372905642002, 6.327610248864136], [-75.6537287153447, 6.327338880338209], [-75.65399960011545, 6.327067170506288], [-75.6539992589285, 6.32679580198942], [-75.65427014328976, 6.326524092054531], [-75.65426911943892, 6.3257099865225985], [-75.65454000313774, 6.325438276508611], [-75.65453932039217, 6.324895539496937], [-75.65481020355516, 6.324623829391982], [-75.65480952061644, 6.324081092392782], [-75.65508040324364, 6.323809382196905], [-75.65507972011184, 6.323266645210192], [-75.65805940756884, 6.320277825748864], [-75.65805906463538, 6.32000645738292], [-75.65860082206385, 6.319463034196916], [-75.65859944947007, 6.318377560800804], [-75.6588703272554, 6.318105849084126], [-75.65886861122037, 6.31674900733514], [-75.65913948809211, 6.316477295564141], [-75.65913880153101, 6.315934558868712], [-75.65859567607757, 6.315392508727031], [-75.65859533313208, 6.315121140339641], [-75.65805220912074, 6.314579089467184], [-75.65805186650275, 6.314307721041564], [-75.65778030507684, 6.314036695326936], [-75.65777927778154, 6.313222589979978], [-75.65750771710653, 6.312951564038536], [-75.65723649881826, 6.312951906410529], [-75.6572341044023, 6.311052326940667], [-75.65696254522865, 6.310781300545769], [-75.65696186155704, 6.310238563493498], [-75.65669030297775, 6.309967536889616], [-75.65668996132051, 6.309696168341562], [-75.65641840317947, 6.309425141546393], [-75.65641806169329, 6.309153772977852], [-75.65614650399043, 6.308882745991423], [-75.65614582137506, 6.308340008810536], [-75.65587426426639, 6.308068981615245], [-75.65614513881962, 6.307797271618296], [-75.65587358202296, 6.307526244387726], [-75.65587289983942, 6.30698350714886], [-75.6556013436368, 6.306712479709483], [-75.65559963921977, 6.305355636474511], [-75.65505652922005, 6.3048135808990144], [-75.65505584818169, 6.304270843514685], [-75.65478429391655, 6.303999815431537], [-75.65478259236174, 6.302642971833022], [-75.65451103915785, 6.302371943488432], [-75.6545089987203, 6.300743730971026], [-75.6542374467332, 6.300472702347481], [-75.65423710686838, 6.300201333567061], [-75.6539655553188, 6.2999303047526185], [-75.6536943436042, 6.29993064458049], [-75.65342279246228, 6.299659615437081], [-75.65342245306478, 6.299388246603904], [-75.65260780179639, 6.298575158081543], [-75.65260712398053, 6.298032420301286], [-75.65233557443247, 6.297761390412319], [-75.65233523570258, 6.297490021500389], [-75.65179213776265, 6.29694796116791], [-75.65206300948809, 6.296676253553258], [-75.65206233244386, 6.296133515674473], [-75.65179078423732, 6.2958624853515035], [-75.65178909266538, 6.294505640517276], [-75.65151754551847, 6.294234609933543], [-75.65097512771952, 6.294235286294328], [-75.64961739746508, 6.292880129225699], [-75.64961706041012, 6.292608760115924], [-75.64853088189368, 6.2915246312783895], [-75.64853020907209, 6.290981892910552], [-75.64825866545725, 6.290710860234096], [-75.64825664828038, 6.289082644957929], [-75.64906925772937, 6.288267527719493], [-75.6490685847007, 6.287724789342315], [-75.64879704269923, 6.287453756766953], [-75.64879468865306, 6.28555417223546], [-75.64852314802019, 6.285283139365101], [-75.64852281194243, 6.285011770117545], [-75.64770819219598, 6.2841986704179975], [-75.6477078565989, 6.283927301115265], [-75.6474363174007, 6.283656267519347], [-75.64743531116396, 6.282842159541885], [-75.64716377271246, 6.282571125721062], [-75.64716343748499, 6.28229975637216], [-75.64607862562399, 6.282301096950933], [-75.64580708811143, 6.282030062319614], [-75.64526468234386, 6.28203073145554], [-75.64445007224582, 6.28121762559616], [-75.64444973849646, 6.280946256087425], [-75.64417820251398, 6.280675220438735], [-75.6436357979742, 6.28067588774296], [-75.643364262524, 6.280404851611819], [-75.6430930603578, 6.280405184898156], [-75.64282152531415, 6.280134148439657], [-75.64282085963262, 6.279591409222506], [-75.64254932517991, 6.2793203725570335], [-75.64254899251621, 6.2790490029268975], [-75.64200592476317, 6.278506929044464], [-75.64064991833287, 6.278508590052253], [-75.64037838550615, 6.278237552078054], [-75.64010718430195, 6.278237883703342], [-75.63956411974215, 6.277695806928686], [-75.63956378871023, 6.277424437122513], [-75.63902072558311, 6.2768823596248815], [-75.63630871917357, 6.276885661815611], [-75.63603718928881, 6.276614621260664], [-75.63522358745998, 6.276615608715403], [-75.63495205823332, 6.276344567524269], [-75.63468085772054, 6.276344896240284], [-75.63413911300013, 6.276888293457932], [-75.63386791216327, 6.27688862178133], [-75.63305332674858, 6.276075495422961], [-75.63061252196577, 6.276078439838354], [-75.63034164755045, 6.276350136600962], [-75.62952804523283, 6.27635111516694], [-75.62952771946564, 6.276079744816946], [-75.62898531812935, 6.276080396463826], [-75.62817269125709, 6.276895484135458], [-75.62708788655642, 6.276896784229469], [-75.62681636095286, 6.276625738415842], [-75.62654515986793, 6.27662606293373], [-75.62627363467104, 6.2763550167940325], [-75.62600243369785, 6.276355341016963], [-75.62518786016909, 6.2755422011054485], [-75.6251875366898, 6.275270830520522], [-75.6246451357374, 6.275271477589905], [-75.6243742582982, 6.275543171541233], [-75.62410305764608, 6.275543494739044], [-75.62383153420191, 6.275272447141088], [-75.62247553135815, 6.275274060252021], [-75.62220465268275, 6.275545753192765], [-75.62139008583976, 6.274732606641765], [-75.62138976436721, 6.274461235851501], [-75.620846721517, 6.273919137260967], [-75.62057552152191, 6.2739194585496625], [-75.6203040006437, 6.273648408843249], [-75.62003280076057, 6.273648729837242], [-75.61948976009793, 6.273106629602292], [-75.61894736079367, 6.273107270551953], [-75.61867648111951, 6.2733789617605344], [-75.61759168172411, 6.273380241470247], [-75.61732016254214, 6.273109190032844], [-75.61704896278421, 6.273109509455146], [-75.61677808202957, 6.2733811997789255], [-75.61623568216281, 6.273381837949662], [-75.61569391919471, 6.273925217745419], [-75.61488031836328, 6.273926173190176], [-75.6146094359955, 6.274197862535535], [-75.61379583457493, 6.274198816337593], [-75.61352495146373, 6.274470505187966], [-75.6132537508079, 6.274470822714739], [-75.61325406807198, 6.274742193922838], [-75.61298318439967, 6.275013882542184], [-75.61189838045824, 6.275015150794658], [-75.61162749588827, 6.275286838792188], [-75.61135629471374, 6.275287155377771], [-75.61135661103769, 6.275558526674109], [-75.61081484049468, 6.2761019020910505], [-75.6105436388574, 6.276102218296806], [-75.61027275301069, 6.276373905705155], [-75.60973034938583, 6.276374537442164], [-75.60945946294999, 6.276646224481508], [-75.60864585694567, 6.276647170653924], [-75.60837496976649, 6.276918857197483], [-75.60810376758305, 6.276919172180757], [-75.60783225081633, 6.276648115562578], [-75.60728984666075, 6.276648744799591], [-75.60701833042764, 6.276377687702505], [-75.60620472446978, 6.276378630042576], [-75.60593320889676, 6.27610757231259], [-75.60539080510866, 6.27610819952909], [-75.60511929006927, 6.275837141320405], [-75.604848088281, 6.275837454563991], [-75.60457657364874, 6.275566396030739], [-75.6032205651331, 6.2755679593725375], [-75.60294967537696, 6.275839643337885], [-75.60267816163042, 6.275568583726499], [-75.60213575807275, 6.275569207518883], [-75.60186424485994, 6.275298147429128], [-75.60159304318704, 6.275298458960759], [-75.6013215303814, 6.27502739854668], [-75.6007791272476, 6.275028020880877], [-75.6005076149757, 6.274756959988589], [-75.6002364135148, 6.274757270791187], [-75.5999655224441, 6.275028953329308], [-75.59969401055197, 6.274757891975254], [-75.59942280905001, 6.2747582023567245], [-75.59887978636068, 6.274216078830085], [-75.59887947655899, 6.273944706891631], [-75.59833707430106, 6.273945326590901], [-75.59806556378437, 6.273674264248218], [-75.59752316172506, 6.273674883078367], [-75.59725165174216, 6.27340382025786], [-75.59698045081868, 6.273404129308582], [-75.59643743194765, 6.27286200284963], [-75.59508142839252, 6.272863544460177], [-75.59453841190995, 6.272321415783328], [-75.5945381044476, 6.272050043609737], [-75.59372358228855, 6.271236849271084], [-75.59372296832714, 6.270694104818108], [-75.59345176862931, 6.270694411910408], [-75.59345146180914, 6.2704230396663005], [-75.5931799555715, 6.270151974344617], [-75.59290875612697, 6.270152281129586], [-75.59290844961423, 6.269880908853078], [-75.59263694393732, 6.2696098431917], [-75.59263663759181, 6.269338470896183], [-75.59236543854075, 6.269338777360502], [-75.59182242858859, 6.2687966451887185], [-75.59155122977731, 6.268796951205574], [-75.59046521374314, 6.267712684210717], [-75.59046490861331, 6.267441311788713], [-75.59019371043529, 6.267441617037759], [-75.58992220740767, 6.267170549695144], [-75.58965100934283, 6.267170854650461], [-75.58965070466027, 6.266899482182887], [-75.58910770000612, 6.266357346649522], [-75.58883650232127, 6.266357651144356], [-75.58856500054115, 6.266086582969817], [-75.58829380296952, 6.2660868871709985], [-75.58802230159624, 6.265815818673453], [-75.58775110413785, 6.265816122581007], [-75.58775080050316, 6.265544750006381], [-75.58747929969022, 6.265273681169804], [-75.58720810248516, 6.265273984770504], [-75.58639360210718, 6.264460776783733], [-75.5863932992398, 6.264189404128806], [-75.58612179982747, 6.263918334444977], [-75.58612119443967, 6.263375589094599], [-75.58503520081814, 6.262291308537311], [-75.58503489875781, 6.2620199357937985], [-75.58449190393384, 6.261477794467217]]}}]}