{
"type": "FeatureCollection",
"name": "cuenca",
"crs": { "type": "name", "properties": { "name": "urn:ogc:def:crs:OGC:1.3:CRS84" } },
"features": [
{ "type": "Feature", "properties": { "id": 1 }, "geometry": { "type": "Polygon", "coordinates": [ [ [ -75.651429924175716, 6.332633464007752 ], [ -75.654141870535241, 6.332358685167692 ], [ -75.654405585364302, 6.326388237044012 ], [ -75.659558522116015, 6.326110353839617 ], [ -75.662809419066775, 6.323121164325881 ], [ -75.667419864742442, 6.322843898188713 ], [ -75.670400170526392, 6.320397750996482 ], [ -75.66821926235032, 6.311716771888512 ], [ -75.671739491132783, 6.307370353057092 ], [ -75.6720072115817, 6.304656326031305 ], [ -75.670916083359018, 6.299773101905457 ], [ -75.671449790024639, 6.292988207428944 ], [ -75.673071446723753, 6.288644227857947 ], [ -75.67713530485598, 6.285382562168612 ], [ -75.677675603673379, 6.283753653755722 ], [ -75.684179840496824, 6.28021740663905 ], [ -75.682278968790897, 6.278320312576847 ], [ -75.679830439265302, 6.272353399902337 ], [ -75.674942977262518, 6.267746454460058 ], [ -75.673308162460742, 6.261778447946326 ], [ -75.670050412038506, 6.259068928733222 ], [ -75.669504233059826, 6.256084568272708 ], [ -75.667334038801911, 6.255544591254382 ], [ -75.666789255787521, 6.253645699856932 ], [ -75.664618730808115, 6.252834341509867 ], [ -75.662455727706188, 6.257993087044627 ], [ -75.659744171906155, 6.258267869246986 ], [ -75.657035663737346, 6.26098495917154 ], [ -75.650797921963502, 6.260721358762265 ], [ -75.649173453401204, 6.262894328804991 ], [ -75.645919472300676, 6.263169713525086 ], [ -75.641045280008356, 6.269145835208144 ], [ -75.63806409716031, 6.270777693693339 ], [ -75.633996461377521, 6.271053999668341 ], [ -75.633184177512376, 6.272140463907238 ], [ -75.627486736253928, 6.270247720103161 ], [ -75.623421024884223, 6.272152168460591 ], [ -75.620706788145128, 6.270255791429222 ], [ -75.617994806417443, 6.270258995411982 ], [ -75.615826493619664, 6.271347032961973 ], [ -75.613114186731096, 6.271078840999864 ], [ -75.611217690405837, 6.272709286096525 ], [ -75.598742482376721, 6.272723688080748 ], [ -75.5941256221885, 6.267030118835629 ], [ -75.588971036202338, 6.265407695119733 ], [ -75.589780363638368, 6.261607566178755 ], [ -75.588695278838955, 6.261337411216456 ], [ -75.588694367169225, 6.260523293484177 ], [ -75.584897942145645, 6.260798909491433 ], [ -75.584357663921139, 6.262699122919261 ], [ -75.58191810120033, 6.263787326182395 ], [ -75.583005598250296, 6.266228477475569 ], [ -75.582466513436316, 6.269214180923617 ], [ -75.583552216207494, 6.270027092944194 ], [ -75.588705315185379, 6.270292704599651 ], [ -75.589248933261771, 6.271377585016974 ], [ -75.592775761708253, 6.272459098762862 ], [ -75.591151309618994, 6.274903287714804 ], [ -75.590887754435187, 6.28168790094796 ], [ -75.594686478623885, 6.283311832322758 ], [ -75.594688943769327, 6.285482808642205 ], [ -75.596046833712492, 6.28710949667909 ], [ -75.597137239879302, 6.291992952454484 ], [ -75.599580311960779, 6.2938897589501 ], [ -75.599311900195175, 6.296332415508599 ], [ -75.602298992111642, 6.2995854407556 ], [ -75.602576155587272, 6.304741185453591 ], [ -75.605562374310963, 6.30718007067417 ], [ -75.606110170809075, 6.311792750743992 ], [ -75.60719536822603, 6.312062858274836 ], [ -75.607469750989168, 6.314776253005016 ], [ -75.609912017580811, 6.315858882842607 ], [ -75.615875698214225, 6.313138150432722 ], [ -75.622658477562084, 6.315029679249563 ], [ -75.625640281395476, 6.313669251519628 ], [ -75.628355101602622, 6.315836945722554 ], [ -75.635137946303246, 6.317728303783611 ], [ -75.637312370900972, 6.321524823781338 ], [ -75.639753384791916, 6.321521826689837 ], [ -75.641924512434784, 6.322604629866182 ], [ -75.645457494763917, 6.328299013926983 ], [ -75.651429924175716, 6.332633464007752 ] ] ] } }
]
}
