{
 "type": "FeatureCollection",
 "crs": {
  "type": "name",
  "properties": {
   "name": "EPSG:4326"
  }
 },
 "features": [
  {
   "type": "Feature",
   "geometry": {
    "type": "Point",
    "coordinates": [
     -75.59408755595547,
     6.271785117145225
    ]
   },
   "properties": {
    "tipo": "punto_original",
    "clasificacion": "CONDICIONAL",
    "cota_contractual_msnm": 1511.36
   }
  },
  {
   "type": "Feature",
   "geometry": {
    "type": "Point",
    "coordinates": [
     -75.59399508939445,
     6.271507914220566
    ]
   },
   "properties": {
    "tipo": "punto_snapped",
    "distancia_m": 32.30655091311105,
    "clasificacion": "CONDICIONAL"
   }
  },
  {
   "type": "Feature",
   "geometry": {
    "type": "LineString",
    "coordinates": [
     [
      -75.59408755595547,
      6.271785117145225
     ],
     [
      -75.59399508939445,
      6.271507914220566
     ]
    ]
   },
   "properties": {
    "tipo": "linea_original_snap",
    "distancia_m": 32.30655091311105,
    "clasificacion": "CONDICIONAL"
   }
  }
 ]
}